{
 "generated_at": "2026-06-26T08:30:21Z",
 "sources": [
  {
   "name": "CelesTrak",
   "url": "https://celestrak.org/NORAD/elements/",
   "license": "frei verfügbar; Attribution. Ursprünglich USSPACECOM/Space-Track."
  },
  {
   "name": "GCAT (J. McDowell, planet4589.org)",
   "url": "https://planet4589.org/space/gcat/",
   "license": "CC-BY 4.0"
  }
 ],
 "satellites": [
  {
   "norad": 68291,
   "name": "STRIX-6",
   "intl": "2026-056A",
   "group": "sar",
   "gcat": {
    "class": "B",
    "category": "IMG-R",
    "owner": "SYNSP",
    "state": "J"
   },
   "omm": {
    "OBJECT_NAME": "STRIX-6",
    "OBJECT_ID": "2026-056A",
    "EPOCH": "2026-06-25T17:17:03.962400",
    "MEAN_MOTION": 15.00218799,
    "ECCENTRICITY": 0.0016471,
    "INCLINATION": 50.2836,
    "RA_OF_ASC_NODE": 309.4584,
    "ARG_OF_PERICENTER": 276.5003,
    "MEAN_ANOMALY": 83.4071,
    "EPHEMERIS_TYPE": 0,
    "CLASSIFICATION_TYPE": "U",
    "NORAD_CAT_ID": 68291,
    "ELEMENT_SET_NO": 999,
    "REV_AT_EPOCH": 1455,
    "BSTAR": 0.00032481,
    "MEAN_MOTION_DOT": 0.00003856,
    "MEAN_MOTION_DDOT": 0
   }
  },
  {
   "norad": 69177,
   "name": "STRIX-7",
   "intl": "2026-112A",
   "group": "sar",
   "gcat": {
    "class": "B",
    "category": "IMG-R",
    "owner": "SYNSP",
    "state": "J"
   },
   "omm": {
    "OBJECT_NAME": "STRIX-7",
    "OBJECT_ID": "2026-112A",
    "EPOCH": "2026-06-26T05:18:08.759808",
    "MEAN_MOTION": 15.01473894,
    "ECCENTRICITY": 0.0022942,
    "INCLINATION": 44.9058,
    "RA_OF_ASC_NODE": 144.9998,
    "ARG_OF_PERICENTER": 99.8117,
    "MEAN_ANOMALY": 260.5347,
    "EPHEMERIS_TYPE": 0,
    "CLASSIFICATION_TYPE": "U",
    "NORAD_CAT_ID": 69177,
    "ELEMENT_SET_NO": 999,
    "REV_AT_EPOCH": 523,
    "BSTAR": 0.00024984,
    "MEAN_MOTION_DOT": 0.00003063,
    "MEAN_MOTION_DDOT": 0
   }
  },
  {
   "norad": 37849,
   "name": "SUOMI NPP",
   "intl": "2011-061A",
   "group": "weather",
   "gcat": {
    "class": "C",
    "category": "MET",
    "owner": "GSFC/NOAA",
    "state": "US"
   },
   "omm": {
    "OBJECT_NAME": "SUOMI NPP",
    "OBJECT_ID": "2011-061A",
    "EPOCH": "2026-06-26T03:37:52.012416",
    "MEAN_MOTION": 14.19519144,
    "ECCENTRICITY": 0.0001015,
    "INCLINATION": 98.7954,
    "RA_OF_ASC_NODE": 117.9661,
    "ARG_OF_PERICENTER": 341.3576,
    "MEAN_ANOMALY": 18.7563,
    "EPHEMERIS_TYPE": 0,
    "CLASSIFICATION_TYPE": "U",
    "NORAD_CAT_ID": 37849,
    "ELEMENT_SET_NO": 999,
    "REV_AT_EPOCH": 75971,
    "BSTAR": 0.000049587,
    "MEAN_MOTION_DOT": 6e-7,
    "MEAN_MOTION_DDOT": 0
   }
  },
  {
   "norad": 54754,
   "name": "SWOT",
   "intl": "2022-173A",
   "group": "resource",
   "gcat": {
    "class": "C",
    "category": "EOSCI",
    "owner": "CNES/JPL",
    "state": "F"
   },
   "omm": {
    "OBJECT_NAME": "SWOT",
    "OBJECT_ID": "2022-173A",
    "EPOCH": "2026-06-26T03:13:32.139264",
    "MEAN_MOTION": 14.00170618,
    "ECCENTRICITY": 0.0000283,
    "INCLINATION": 77.6102,
    "RA_OF_ASC_NODE": 23.2312,
    "ARG_OF_PERICENTER": 85.7977,
    "MEAN_ANOMALY": 274.3207,
    "EPHEMERIS_TYPE": 0,
    "CLASSIFICATION_TYPE": "U",
    "NORAD_CAT_ID": 54754,
    "ELEMENT_SET_NO": 999,
    "REV_AT_EPOCH": 18040,
    "BSTAR": 0.000018587,
    "MEAN_MOTION_DOT": 2.5e-7,
    "MEAN_MOTION_DDOT": 0
   }
  },
  {
   "norad": 36605,
   "name": "TANDEM-X",
   "intl": "2010-030A",
   "group": "resource",
   "gcat": {
    "class": null,
    "category": "IMG-R",
    "owner": "DLR2/EASF",
    "state": "D"
   },
   "omm": {
    "OBJECT_NAME": "TANDEM-X",
    "OBJECT_ID": "2010-030A",
    "EPOCH": "2026-06-24T13:39:19.150560",
    "MEAN_MOTION": 15.19149086,
    "ECCENTRICITY": 0.0001789,
    "INCLINATION": 97.4453,
    "RA_OF_ASC_NODE": 183.1708,
    "ARG_OF_PERICENTER": 93.6569,
    "MEAN_ANOMALY": 266.4871,
    "EPHEMERIS_TYPE": 0,
    "CLASSIFICATION_TYPE": "U",
    "NORAD_CAT_ID": 36605,
    "ELEMENT_SET_NO": 999,
    "REV_AT_EPOCH": 88776,
    "BSTAR": 0.000013790195,
    "MEAN_MOTION_DOT": 0.00000223,
    "MEAN_MOTION_DDOT": 0
   }
  },
  {
   "norad": 25397,
   "name": "TECHSAT 1B (GO-32)",
   "intl": "1998-043D",
   "group": "resource",
   "gcat": {
    "class": "A",
    "category": "COM",
    "owner": "TECN",
    "state": "IL"
   },
   "omm": {
    "OBJECT_NAME": "TECHSAT 1B (GO-32)",
    "OBJECT_ID": "1998-043D",
    "EPOCH": "2026-06-25T23:38:45.281184",
    "MEAN_MOTION": 14.24429963,
    "ECCENTRICITY": 0.0001499,
    "INCLINATION": 99.0071,
    "RA_OF_ASC_NODE": 169.9659,
    "ARG_OF_PERICENTER": 146.3485,
    "MEAN_ANOMALY": 213.7789,
    "EPHEMERIS_TYPE": 0,
    "CLASSIFICATION_TYPE": "U",
    "NORAD_CAT_ID": 25397,
    "ELEMENT_SET_NO": 999,
    "REV_AT_EPOCH": 45258,
    "BSTAR": 0.000045556,
    "MEAN_MOTION_DOT": 5.9e-7,
    "MEAN_MOTION_DDOT": 0
   }
  },
  {
   "norad": 25994,
   "name": "TERRA",
   "intl": "1999-068A",
   "group": "resource",
   "gcat": {
    "class": "C",
    "category": "IMG",
    "owner": "GSFC",
    "state": "US"
   },
   "omm": {
    "OBJECT_NAME": "TERRA",
    "OBJECT_ID": "1999-068A",
    "EPOCH": "2026-06-26T04:32:47.082048",
    "MEAN_MOTION": 14.61109674,
    "ECCENTRICITY": 0.0002293,
    "INCLINATION": 97.9451,
    "RA_OF_ASC_NODE": 226.3786,
    "ARG_OF_PERICENTER": 163.3171,
    "MEAN_ANOMALY": 233.05,
    "EPHEMERIS_TYPE": 0,
    "CLASSIFICATION_TYPE": "U",
    "NORAD_CAT_ID": 25994,
    "ELEMENT_SET_NO": 999,
    "REV_AT_EPOCH": 41092,
    "BSTAR": 0.000084279,
    "MEAN_MOTION_DOT": 0.0000037,
    "MEAN_MOTION_DDOT": 0
   }
  },
  {
   "norad": 31698,
   "name": "TERRASAR-X",
   "intl": "2007-026A",
   "group": "resource",
   "gcat": {
    "class": null,
    "category": "IMG-R",
    "owner": "DLR2/EASF",
    "state": "D"
   },
   "omm": {
    "OBJECT_NAME": "TERRASAR-X",
    "OBJECT_ID": "2007-026A",
    "EPOCH": "2026-06-24T13:39:19.109088",
    "MEAN_MOTION": 15.19150427,
    "ECCENTRICITY": 0.00016263,
    "INCLINATION": 97.4447,
    "RA_OF_ASC_NODE": 183.1695,
    "ARG_OF_PERICENTER": 88.3572,
    "MEAN_ANOMALY": 271.7849,
    "EPHEMERIS_TYPE": 0,
    "CLASSIFICATION_TYPE": "U",
    "NORAD_CAT_ID": 31698,
    "ELEMENT_SET_NO": 999,
    "REV_AT_EPOCH": 5434,
    "BSTAR": 0.000081449017,
    "MEAN_MOTION_DOT": 0.00001644,
    "MEAN_MOTION_DDOT": 0
   }
  },
  {
   "norad": 33396,
   "name": "THEOS",
   "intl": "2008-049A",
   "group": "resource",
   "gcat": {
    "class": "C",
    "category": "IMG",
    "owner": "GISTDA",
    "state": "T"
   },
   "omm": {
    "OBJECT_NAME": "THEOS",
    "OBJECT_ID": "2008-049A",
    "EPOCH": "2026-06-26T04:45:56.244096",
    "MEAN_MOTION": 14.20134655,
    "ECCENTRICITY": 0.0001164,
    "INCLINATION": 98.5571,
    "RA_OF_ASC_NODE": 234.1897,
    "ARG_OF_PERICENTER": 82.4778,
    "MEAN_ANOMALY": 277.6531,
    "EPHEMERIS_TYPE": 0,
    "CLASSIFICATION_TYPE": "U",
    "NORAD_CAT_ID": 33396,
    "ELEMENT_SET_NO": 999,
    "REV_AT_EPOCH": 91924,
    "BSTAR": 0.000075268,
    "MEAN_MOTION_DOT": 0.00000118,
    "MEAN_MOTION_DDOT": 0
   }
  },
  {
   "norad": 55973,
   "name": "TIANMU-1 03",
   "intl": "2023-039A",
   "group": "weather",
   "gcat": {
    "class": "B",
    "category": "MET",
    "owner": "TIANMU",
    "state": "CN"
   },
   "omm": {
    "OBJECT_NAME": "TIANMU-1 03",
    "OBJECT_ID": "2023-039A",
    "EPOCH": "2026-06-26T04:02:13.280928",
    "MEAN_MOTION": 15.47526611,
    "ECCENTRICITY": 0.0003992,
    "INCLINATION": 97.5231,
    "RA_OF_ASC_NODE": 351.4906,
    "ARG_OF_PERICENTER": 77.8303,
    "MEAN_ANOMALY": 282.3393,
    "EPHEMERIS_TYPE": 0,
    "CLASSIFICATION_TYPE": "U",
    "NORAD_CAT_ID": 55973,
    "ELEMENT_SET_NO": 999,
    "REV_AT_EPOCH": 18222,
    "BSTAR": 0.00031863,
    "MEAN_MOTION_DOT": 0.00016302,
    "MEAN_MOTION_DDOT": 0
   }
  }
 ]
}
